{
  "type": "FeatureCollection",
  "features": [
    {
      "type": "Feature",
      "geometry": {
        "type": "Point",
        "coordinates": [
          -118.9975759969391,
          31.949412495026557,
          400884.0
        ]
      },
      "properties": {
        "name": "SATELLITE-63890",
        "satellite_id": "63890",
        "object_name": "SAT-63890",
        "status": "active",
        "epoch": "2025-06-01T22:00:01.999584Z",
        "mean_motion": 15.57896259,
        "inclination": 42.9998,
        "eccentricity": 0.0001283,
        "semi_major_axis": 6771.884,
        "altitude_km": 400.884,
        "apogee": 6772.752,
        "perigee": 6771.015,
        "period": 92.432,
        "raan": 323.6195,
        "arg_of_perigee": 277.3287,
        "mean_anomaly": 211.7833,
        "classification": "U",
        "source": "18th SPCS",
        "data_mode": "REAL"
      }
    },
    {
      "type": "Feature",
      "geometry": {
        "type": "Point",
        "coordinates": [
          -117.07732702662611,
          30.964014106104987,
          400880.0000000001
        ]
      },
      "properties": {
        "name": "SATELLITE-63891",
        "satellite_id": "63891",
        "object_name": "SAT-63891",
        "status": "active",
        "epoch": "2025-06-01T22:00:01.999584Z",
        "mean_motion": 15.57897334,
        "inclination": 42.9999,
        "eccentricity": 0.0001378,
        "semi_major_axis": 6771.88,
        "altitude_km": 400.8800000000001,
        "apogee": 6772.814,
        "perigee": 6770.947,
        "period": 92.432,
        "raan": 323.6149,
        "arg_of_perigee": 275.1551,
        "mean_anomaly": 215.8718,
        "classification": "U",
        "source": "18th SPCS",
        "data_mode": "REAL"
      }
    },
    {
      "type": "Feature",
      "geometry": {
        "type": "Point",
        "coordinates": [
          -115.19500010018635,
          29.948977518482295,
          400880.0000000001
        ]
      },
      "properties": {
        "name": "SATELLITE-63892",
        "satellite_id": "63892",
        "object_name": "SAT-63892",
        "status": "active",
        "epoch": "2025-06-01T22:00:01.999584Z",
        "mean_motion": 15.57897525,
        "inclination": 42.9996,
        "eccentricity": 0.000123,
        "semi_major_axis": 6771.88,
        "altitude_km": 400.8800000000001,
        "apogee": 6772.713,
        "perigee": 6771.0470000000005,
        "period": 92.432,
        "raan": 323.6098,
        "arg_of_perigee": 273.9059,
        "mean_anomaly": 219.0386,
        "classification": "U",
        "source": "18th SPCS",
        "data_mode": "REAL"
      }
    },
    {
      "type": "Feature",
      "geometry": {
        "type": "Point",
        "coordinates": [
          -113.3495070715071,
          28.907463126036433,
          400886.9999999997
        ]
      },
      "properties": {
        "name": "SATELLITE-63893",
        "satellite_id": "63893",
        "object_name": "SAT-63893",
        "status": "active",
        "epoch": "2025-06-01T22:00:01.999584Z",
        "mean_motion": 15.57895232,
        "inclination": 42.9998,
        "eccentricity": 0.000138,
        "semi_major_axis": 6771.887,
        "altitude_km": 400.8869999999997,
        "apogee": 6772.821,
        "perigee": 6770.952,
        "period": 92.432,
        "raan": 323.6055,
        "arg_of_perigee": 277.1891,
        "mean_anomaly": 217.6738,
        "classification": "U",
        "source": "18th SPCS",
        "data_mode": "REAL"
      }
    },
    {
      "type": "Feature",
      "geometry": {
        "type": "Point",
        "coordinates": [
          -111.5437768011686,
          27.841624910475865,
          400882.9999999998
        ]
      },
      "properties": {
        "name": "SATELLITE-63894",
        "satellite_id": "63894",
        "object_name": "SAT-63894",
        "status": "active",
        "epoch": "2025-06-01T22:00:01.999584Z",
        "mean_motion": 15.5789659,
        "inclination": 42.9997,
        "eccentricity": 0.0001404,
        "semi_major_axis": 6771.883,
        "altitude_km": 400.8829999999998,
        "apogee": 6772.8330000000005,
        "perigee": 6770.932000000001,
        "period": 92.432,
        "raan": 323.5998,
        "arg_of_perigee": 276.1775,
        "mean_anomaly": 220.6027,
        "classification": "U",
        "source": "18th SPCS",
        "data_mode": "REAL"
      }
    },
    {
      "type": "Feature",
      "geometry": {
        "type": "Point",
        "coordinates": [
          -109.77229490613254,
          26.75288856628814,
          400886.9999999997
        ]
      },
      "properties": {
        "name": "SATELLITE-63895",
        "satellite_id": "63895",
        "object_name": "SAT-63895",
        "status": "active",
        "epoch": "2025-06-01T22:00:01.999584Z",
        "mean_motion": 15.57895101,
        "inclination": 42.9997,
        "eccentricity": 0.0001319,
        "semi_major_axis": 6771.887,
        "altitude_km": 400.8869999999997,
        "apogee": 6772.780000000001,
        "perigee": 6770.994000000001,
        "period": 92.432,
        "raan": 323.5958,
        "arg_of_perigee": 277.2465,
        "mean_anomaly": 221.4506,
        "classification": "U",
        "source": "18th SPCS",
        "data_mode": "REAL"
      }
    },
    {
      "type": "Feature",
      "geometry": {
        "type": "Point",
        "coordinates": [
          -108.03662737594234,
          25.642701304863525,
          400878.9999999999
        ]
      },
      "properties": {
        "name": "SATELLITE-63896",
        "satellite_id": "63896",
        "object_name": "SAT-63896",
        "status": "active",
        "epoch": "2025-06-01T22:00:01.999584Z",
        "mean_motion": 15.57897888,
        "inclination": 42.9996,
        "eccentricity": 0.0001212,
        "semi_major_axis": 6771.879,
        "altitude_km": 400.8789999999999,
        "apogee": 6772.7,
        "perigee": 6771.058,
        "period": 92.432,
        "raan": 323.5905,
        "arg_of_perigee": 274.8895,
        "mean_anomaly": 225.724,
        "classification": "U",
        "source": "18th SPCS",
        "data_mode": "REAL"
      }
    },
    {
      "type": "Feature",
      "geometry": {
        "type": "Point",
        "coordinates": [
          -106.33253805872067,
          24.512291232784115,
          400882.9999999998
        ]
      },
      "properties": {
        "name": "SATELLITE-63897",
        "satellite_id": "63897",
        "object_name": "SAT-63897",
        "status": "active",
        "epoch": "2025-06-01T22:00:01.999584Z",
        "mean_motion": 15.57896631,
        "inclination": 42.9998,
        "eccentricity": 0.000154,
        "semi_major_axis": 6771.883,
        "altitude_km": 400.8829999999998,
        "apogee": 6772.925,
        "perigee": 6770.84,
        "period": 92.432,
        "raan": 323.5857,
        "arg_of_perigee": 280.5761,
        "mean_anomaly": 221.954,
        "classification": "U",
        "source": "18th SPCS",
        "data_mode": "REAL"
      }
    },
    {
      "type": "Feature",
      "geometry": {
        "type": "Point",
        "coordinates": [
          -104.6580954367627,
          23.3617974740118,
          400882.9999999998
        ]
      },
      "properties": {
        "name": "SATELLITE-63898",
        "satellite_id": "63898",
        "object_name": "SAT-63898",
        "status": "active",
        "epoch": "2025-06-01T22:00:01.999584Z",
        "mean_motion": 15.5789635,
        "inclination": 42.9998,
        "eccentricity": 0.0001288,
        "semi_major_axis": 6771.883,
        "altitude_km": 400.8829999999998,
        "apogee": 6772.756,
        "perigee": 6771.011,
        "period": 92.432,
        "raan": 323.5805,
        "arg_of_perigee": 277.9846,
        "mean_anomaly": 226.4639,
        "classification": "U",
        "source": "18th SPCS",
        "data_mode": "REAL"
      }
    },
    {
      "type": "Feature",
      "geometry": {
        "type": "Point",
        "coordinates": [
          -103.01169466183092,
          22.19364620177114,
          400893.0
        ]
      },
      "properties": {
        "name": "SATELLITE-63899",
        "satellite_id": "63899",
        "object_name": "SAT-63899",
        "status": "active",
        "epoch": "2025-06-01T22:00:01.999584Z",
        "mean_motion": 15.57893141,
        "inclination": 42.9997,
        "eccentricity": 0.0001334,
        "semi_major_axis": 6771.893,
        "altitude_km": 400.89300000000003,
        "apogee": 6772.796,
        "perigee": 6770.9890000000005,
        "period": 92.433,
        "raan": 323.5764,
        "arg_of_perigee": 275.0793,
        "mean_anomaly": 231.2876,
        "classification": "U",
        "source": "18th SPCS",
        "data_mode": "REAL"
      }
    }
  ],
  "metadata": {
    "original_count": 50000,
    "selected_count": 500,
    "selection_method": "most_recent_500",
    "processed_at": "2025-09-15T13:39:14.453379+00:00"
  }
}
